{"type": "FeatureCollection", "features": [ {"type": "Feature", "properties": {"norad_id": 33980, "name": "COSMOS 2251 DEB", "group": "cosmos-2251-debris", "lat": -17.879002205492966, "lon": 26.739221231107745, "alt_km": 721.0818484190486, "timestamp": "2025-12-27T02:10:16.582245+00:00", "meta": {"OBJECT_NAME": "COSMOS 2251 DEB", "OBJECT_ID": "1993-036FP", "EPOCH": "2025-12-26T12:01:53.267808", "MEAN_MOTION": 14.58725098, "ECCENTRICITY": 0.002779, "INCLINATION": 74.0208, "RA_OF_ASC_NODE": 33.1654, "ARG_OF_PERICENTER": 175.7857, "MEAN_ANOMALY": 312.9834, "EPHEMERIS_TYPE": 0, "CLASSIFICATION_TYPE": "U", "NORAD_CAT_ID": 33980, "ELEMENT_SET_NO": 999, "REV_AT_EPOCH": 88995, "BSTAR": 0.00056249, "MEAN_MOTION_DOT": 2.61e-05, "MEAN_MOTION_DDOT": 0}, "tle": {"line1": "1 33980U 93036FP  25360.50131097  .00002610  00000+0  56249-3 0  9993", "line2": "2 33980  74.0208  33.1654 0027790 175.7857 312.9834 14.58725098889951"}}, "geometry": {"type": "Point", "coordinates": [26.739221231107745, -17.879002205492966]}}, {"type": "Feature", "properties": {"norad_id": 33982, "name": "COSMOS 2251 DEB", "group": "cosmos-2251-debris", "lat": -73.26211594779414, "lon": -99.14192561543786, "alt_km": 706.2080847757779, "timestamp": "2025-12-27T02:10:16.582255+00:00", "meta": {"OBJECT_NAME": "COSMOS 2251 DEB", "OBJECT_ID": "1993-036FR", "EPOCH": "2025-12-26T15:50:06.911808", "MEAN_MOTION": 14.60277835, "ECCENTRICITY": 0.0075585, "INCLINATION": 74.0714, "RA_OF_ASC_NODE": 333.4148, "ARG_OF_PERICENTER": 14.0577, "MEAN_ANOMALY": 158.9029, "EPHEMERIS_TYPE": 0, "CLASSIFICATION_TYPE": "U", "NORAD_CAT_ID": 33982, "ELEMENT_SET_NO": 999, "REV_AT_EPOCH": 89362, "BSTAR": 0.00063659, "MEAN_MOTION_DOT": 3.17e-05, "MEAN_MOTION_DDOT": 0}, "tle": {"line1": "1 33982U 93036FR  25360.65980222  .00003170  00000+0  63659-3 0  9998", "line2": "2 33982  74.0714 333.4148 0075585  14.0577 158.9029 14.60277835893625"}}, "geometry": {"type": "Point", "coordinates": [-99.14192561543786, -73.26211594779414]}}, {"type": "Feature", "properties": {"norad_id": 33983, "name": "COSMOS 2251 DEB", "group": "cosmos-2251-debris", "lat": 68.448875129154, "lon": 166.4865521277501, "alt_km": 728.6977759445344, "timestamp": "2025-12-27T02:10:16.582265+00:00", "meta": {"OBJECT_NAME": "COSMOS 2251 DEB", "OBJECT_ID": "1993-036FS", "EPOCH": "2025-12-26T18:05:49.406784", "MEAN_MOTION": 14.50729838, "ECCENTRICITY": 0.0021068, "INCLINATION": 74.0504, "RA_OF_ASC_NODE": 120.7234, "ARG_OF_PERICENTER": 222.4007, "MEAN_ANOMALY": 256.7747, "EPHEMERIS_TYPE": 0, "CLASSIFICATION_TYPE": "U", "NORAD_CAT_ID": 33983, "ELEMENT_SET_NO": 999, "REV_AT_EPOCH": 88832, "BSTAR": 0.00062996, "MEAN_MOTION_DOT": 2.457e-05, "MEAN_MOTION_DDOT": 0}, "tle": {"line1": "1 33983U 93036FS  25360.75404406  .00002457  00000+0  62996-3 0  9995", "line2": "2 33983  74.0504 120.7234 0021068 222.4007 256.7747 14.50729838888325"}}, "geometry": {"type": "Point", "coordinates": [166.4865521277501, 68.448875129154]}}, {"type": "Feature", "properties": {"norad_id": 33984, "name": "COSMOS 2251 DEB", "group": "cosmos-2251-debris", "lat": -73.69273164166701, "lon": -119.17590487945291, "alt_km": 687.1579166411093, "timestamp": "2025-12-27T02:10:16.582276+00:00", "meta": {"OBJECT_NAME": "COSMOS 2251 DEB", "OBJECT_ID": "1993-036FT", "EPOCH": "2025-12-26T09:19:20.235360", "MEAN_MOTION": 14.66481335, "ECCENTRICITY": 0.0022409, "INCLINATION": 74.0098, "RA_OF_ASC_NODE": 320.7441, "ARG_OF_PERICENTER": 154.6221, "MEAN_ANOMALY": 13.5669, "EPHEMERIS_TYPE": 0, "CLASSIFICATION_TYPE": "U", "NORAD_CAT_ID": 33984, "ELEMENT_SET_NO": 999, "REV_AT_EPOCH": 89266, "BSTAR": 0.00087654, "MEAN_MOTION_DOT": 4.845e-05, "MEAN_MOTION_DDOT": 0}, "tle": {"line1": "1 33984U 93036FT  25360.38842865  .00004845  00000+0  87654-3 0  9991", "line2": "2 33984  74.0098 320.7441 0022409 154.6221  13.5669 14.66481335892668"}}, "geometry": {"type": "Point", "coordinates": [-119.17590487945291, -73.69273164166701]}}, {"type": "Feature", "properties": {"norad_id": 33986, "name": "COSMOS 2251 DEB", "group": "cosmos-2251-debris", "lat": 15.834931978229521, "lon": 91.36097819432597, "alt_km": 777.3174520961757, "timestamp": "2025-12-27T02:10:16.582286+00:00", "meta": {"OBJECT_NAME": "COSMOS 2251 DEB", "OBJECT_ID": "1993-036FV", "EPOCH": "2025-12-24T20:26:35.700576", "MEAN_MOTION": 14.43260292, "ECCENTRICITY": 0.00410855, "INCLINATION": 74.0366, "RA_OF_ASC_NODE": 280.1744, "ARG_OF_PERICENTER": 350.3243, "MEAN_ANOMALY": 66.1991, "EPHEMERIS_TYPE": 0, "CLASSIFICATION_TYPE": "U", "NORAD_CAT_ID": 33986, "ELEMENT_SET_NO": 999, "REV_AT_EPOCH": 88203, "BSTAR": 0.00070852763, "MEAN_MOTION_DOT": 2.383e-05, "MEAN_MOTION_DDOT": 0}, "tle": {"line1": "1 33986U 93036FV  25358.85180209  .00002383  00000+0  70853-3 0  9997", "line2": "2 33986  74.0366 280.1744 0041085 350.3243  66.1991 14.43260292882037"}}, "geometry": {"type": "Point", "coordinates": [91.36097819432597, 15.834931978229521]}}, {"type": "Feature", "properties": {"norad_id": 33990, "name": "COSMOS 2251 DEB", "group": "cosmos-2251-debris", "lat": 72.76040173236909, "lon": -28.76611204780572, "alt_km": 1354.0074184674468, "timestamp": "2025-12-27T02:10:16.582296+00:00", "meta": {"OBJECT_NAME": "COSMOS 2251 DEB", "OBJECT_ID": "1993-036FZ", "EPOCH": "2025-12-26T18:54:44.336160", "MEAN_MOTION": 13.50017907, "ECCENTRICITY": 0.040725, "INCLINATION": 73.9281, "RA_OF_ASC_NODE": 263.4404, "ARG_OF_PERICENTER": 281.2178, "MEAN_ANOMALY": 131.6768, "EPHEMERIS_TYPE": 0, "CLASSIFICATION_TYPE": "U", "NORAD_CAT_ID": 33990, "ELEMENT_SET_NO": 999, "REV_AT_EPOCH": 82919, "BSTAR": 0.00075233, "MEAN_MOTION_DOT": 7.77e-06, "MEAN_MOTION_DDOT": 0}, "tle": {"line1": "1 33990U 93036FZ  25360.78801315  .00000777  00000+0  75233-3 0  9997", "line2": "2 33990  73.9281 263.4404 0407250 281.2178 131.6768 13.50017907829190"}}, "geometry": {"type": "Point", "coordinates": [-28.76611204780572, 72.76040173236909]}}, {"type": "Feature", "properties": {"norad_id": 33992, "name": "COSMOS 2251 DEB", "group": "cosmos-2251-debris", "lat": 49.146463858709424, "lon": 110.70997001383155, "alt_km": 652.0551938259669, "timestamp": "2025-12-27T02:10:16.582306+00:00", "meta": {"OBJECT_NAME": "COSMOS 2251 DEB", "OBJECT_ID": "1993-036GB", "EPOCH": "2025-12-26T14:56:09.178080", "MEAN_MOTION": 14.6633031, "ECCENTRICITY": 0.0051948, "INCLINATION": 74.0246, "RA_OF_ASC_NODE": 310.9575, "ARG_OF_PERICENTER": 64.593, "MEAN_ANOMALY": 112.7139, "EPHEMERIS_TYPE": 0, "CLASSIFICATION_TYPE": "U", "NORAD_CAT_ID": 33992, "ELEMENT_SET_NO": 999, "REV_AT_EPOCH": 89328, "BSTAR": 0.00094775, "MEAN_MOTION_DOT": 5.31e-05, "MEAN_MOTION_DDOT": 0}, "tle": {"line1": "1 33992U 93036GB  25360.62232845  .00005310  00000+0  94775-3 0  9998", "line2": "2 33992  74.0246 310.9575 0051948  64.5930 112.7139 14.66330310893286"}}, "geometry": {"type": "Point", "coordinates": [110.70997001383155, 49.146463858709424]}}, {"type": "Feature", "properties": {"norad_id": 33994, "name": "COSMOS 2251 DEB", "group": "cosmos-2251-debris", "lat": -6.675930078305706, "lon": -14.22769053392146, "alt_km": 763.4354922385683, "timestamp": "2025-12-27T02:10:16.582317+00:00", "meta": {"OBJECT_NAME": "COSMOS 2251 DEB", "OBJECT_ID": "1993-036GD", "EPOCH": "2025-12-26T20:50:24.920736", "MEAN_MOTION": 14.41223493, "ECCENTRICITY": 0.0024049, "INCLINATION": 74.0415, "RA_OF_ASC_NODE": 164.2639, "ARG_OF_PERICENTER": 296.2339, "MEAN_ANOMALY": 178.8438, "EPHEMERIS_TYPE": 0, "CLASSIFICATION_TYPE": "U", "NORAD_CAT_ID": 33994, "ELEMENT_SET_NO": 999, "REV_AT_EPOCH": 88623, "BSTAR": 0.0001119, "MEAN_MOTION_DOT": 3.36e-06, "MEAN_MOTION_DDOT": 0}, "tle": {"line1": "1 33994U 93036GD  25360.86834399  .00000336  00000+0  11190-3 0  9991", "line2": "2 33994  74.0415 164.2639 0024049 296.2339 178.8438 14.41223493886234"}}, "geometry": {"type": "Point", "coordinates": [-14.22769053392146, -6.675930078305706]}}, {"type": "Feature", "properties": {"norad_id": 33995, "name": "COSMOS 2251 DEB", "group": "cosmos-2251-debris", "lat": -63.07746913872035, "lon": 58.85241395026628, "alt_km": 824.291659026766, "timestamp": "2025-12-27T02:10:16.582327+00:00", "meta": {"OBJECT_NAME": "COSMOS 2251 DEB", "OBJECT_ID": "1993-036GE", "EPOCH": "2025-12-26T14:46:37.186752", "MEAN_MOTION": 14.34838318, "ECCENTRICITY": 0.0059177, "INCLINATION": 74.0614, "RA_OF_ASC_NODE": 93.9659, "ARG_OF_PERICENTER": 104.3798, "MEAN_ANOMALY": 256.3933, "EPHEMERIS_TYPE": 0, "CLASSIFICATION_TYPE": "U", "NORAD_CAT_ID": 33995, "ELEMENT_SET_NO": 999, "REV_AT_EPOCH": 87718, "BSTAR": 0.00082073, "MEAN_MOTION_DOT": 2.352e-05, "MEAN_MOTION_DDOT": 0}, "tle": {"line1": "1 33995U 93036GE  25360.61570818  .00002352  00000+0  82073-3 0  9996", "line2": "2 33995  74.0614  93.9659 0059177 104.3798 256.3933 14.34838318877180"}}, "geometry": {"type": "Point", "coordinates": [58.85241395026628, -63.07746913872035]}}, {"type": "Feature", "properties": {"norad_id": 33999, "name": "COSMOS 2251 DEB", "group": "cosmos-2251-debris", "lat": 72.67006182192682, "lon": -90.25366499085658, "alt_km": 579.9125747732596, "timestamp": "2025-12-27T02:10:16.582337+00:00", "meta": {"OBJECT_NAME": "COSMOS 2251 DEB", "OBJECT_ID": "1993-036GJ", "EPOCH": "2025-12-26T14:28:12.423648", "MEAN_MOTION": 14.83631033, "ECCENTRICITY": 0.0044371, "INCLINATION": 73.9182, "RA_OF_ASC_NODE": 203.1227, "ARG_OF_PERICENTER": 94.3441, "MEAN_ANOMALY": 266.2809, "EPHEMERIS_TYPE": 0, "CLASSIFICATION_TYPE": "U", "NORAD_CAT_ID": 33999, "ELEMENT_SET_NO": 999, "REV_AT_EPOCH": 89456, "BSTAR": 0.001245, "MEAN_MOTION_DOT": 0.00010434, "MEAN_MOTION_DDOT": 0}, "tle": {"line1": "1 33999U 93036GJ  25360.60292157  .00010434  00000+0  12450-2 0  9997", "line2": "2 33999  73.9182 203.1227 0044371  94.3441 266.2809 14.83631033894563"}}, "geometry": {"type": "Point", "coordinates": [-90.25366499085658, 72.67006182192682]}}]}